QIANFAN-65              
1 62795U 25016L   25306.43950950  .00000064  00000+0  80661-4 0  9998
2 62795  88.9729 107.2264 0015617  99.3197 260.9721 13.50974161 41801
QIANFAN-66              
1 62796U 25016M   25306.46835937  .00000071  00000+0  90945-4 0  9993
2 62796  88.9749 107.1857 0016735  95.2741 265.0320 13.50978245 41856
QIANFAN-67              
1 62797U 25016N   25306.47245300  .00000078  00000+0  10111-3 0  9997
2 62797  88.9739 107.2148 0016691 101.4581 258.8446 13.50971033 41827
QIANFAN-68              
1 62798U 25016P   25306.46421851  .00000065  00000+0  81691-4 0  9992
2 62798  88.9743 107.2594 0016750  99.8999 260.4044 13.50973352 41804
QIANFAN-69              
1 62799U 25016Q   25306.48074735  .00000081  00000+0  10615-3 0  9995
2 62799  88.9721 107.1358 0017510 100.8581 259.4541 13.50970718 41840
QIANFAN-70              
1 62800U 25016R   25306.49702928  .00000070  00000+0  89426-4 0  9996
2 62800  88.9743 107.2640 0017105  92.0631 268.2479 13.50973577 41800
QIANFAN-71              
1 62801U 25016S   25306.49300207  .00000063  00000+0  78896-4 0  9992
2 62801  88.9736 107.2464 0017410 103.9981 256.3107 13.50974448 41800
QIANFAN-72              
1 62802U 25016T   25306.50947352  .00000059  00000+0  72107-4 0  9997
2 62802  88.9727 107.2620 0020630 110.7480 249.5884 13.50974171 41790
